{"type":"FeatureCollection","features":[{"type":"Feature","properties":{"name":"LZR31E","category":"LZR - Restricted","color":"#ef4444"},"geometry":{"type":"Polygon","coordinates":[[[17.07996,48.5548],[17.09164,48.54821],[17.1143,48.53525],[17.12597,48.52866],[17.13799,48.53366],[17.16202,48.54389],[17.22279,48.56911],[17.2506,48.5916],[17.26913,48.60635],[17.3251,48.65106],[17.25712,48.67668],[17.16854,48.61566],[17.07996,48.5548]]]}},{"type":"Feature","properties":{"name":"LZR31B","category":"LZR - Restricted","color":"#ef4444"},"geometry":{"type":"Polygon","coordinates":[[[17.05524,48.48771],[17.13043,48.4349],[17.16236,48.45243],[17.20493,48.47588],[17.18536,48.48908],[17.17541,48.49568],[17.12597,48.52866],[17.05524,48.48771]]]}},{"type":"Feature","properties":{"name":"LZR31C","category":"LZR - Restricted","color":"#ef4444"},"geometry":{"type":"Polygon","coordinates":[[[17.12597,48.52866],[17.17541,48.49568],[17.18536,48.48908],[17.20493,48.47588],[17.24167,48.49386],[17.25368,48.5],[17.29042,48.51797],[17.27085,48.53275],[17.22279,48.56911],[17.16202,48.54389],[17.13799,48.53366],[17.12597,48.52866]]]}},{"type":"Feature","properties":{"name":"LZR31D","category":"LZR - Restricted","color":"#ef4444"},"geometry":{"type":"Polygon","coordinates":[[[17.22279,48.56911],[17.27085,48.53275],[17.29042,48.51797],[17.33746,48.56252],[17.40063,48.62156],[17.3251,48.65106],[17.26913,48.60635],[17.2506,48.5916],[17.22279,48.56911]]]}},{"type":"Feature","properties":{"name":"LZR31A","category":"LZR - Restricted","color":"#ef4444"},"geometry":{"type":"Polygon","coordinates":[[[16.99654,48.37518],[17.09782,48.34872],[17.15549,48.40619],[17.22828,48.46336],[17.20493,48.47588],[17.16236,48.45243],[17.13043,48.4349],[17.05524,48.48771],[17.12597,48.52866],[17.1143,48.53525],[17.09164,48.54821],[17.07996,48.5548],[17.00237,48.50114],[16.99654,48.37518]]]}},{"type":"Feature","properties":{"name":"LZR314","category":"LZR - Restricted","color":"#ef4444"},"geometry":{"type":"Polygon","coordinates":[[[16.94607,48.42305],[16.94675,48.3802],[16.96941,48.34187],[17.01473,48.30923],[17.05902,48.30215],[17.22862,48.31243],[17.25334,48.32887],[17.27291,48.34804],[17.2863,48.36971],[17.29317,48.39251],[17.29214,48.41918],[17.28115,48.44697],[17.26021,48.47201],[17.23206,48.49204],[17.26433,48.56116],[17.13181,48.58842],[17.10262,48.51911],[17.04563,48.5091],[16.9986,48.48817],[16.96426,48.45835],[16.94607,48.42305]]]}},{"type":"Feature","properties":{"name":"LZR222","category":"LZR - Restricted","color":"#ef4444"},"geometry":{"type":"Polygon","coordinates":[[[17.14794,48.33526],[17.16545,48.32795],[17.19944,48.36469],[17.18262,48.37176],[17.14794,48.33526]]]}},{"type":"Feature","properties":{"name":"LZR223","category":"LZR - Restricted","color":"#ef4444"},"geometry":{"type":"Polygon","coordinates":[[[17.07893,48.30581],[17.08958,48.28936],[17.18536,48.31768],[17.17403,48.33411],[17.07893,48.30581]]]}},{"type":"Feature","properties":{"name":"LZP29","category":"LZP - PROHIBITED","color":"#ef4444"},"geometry":{"type":"Polygon","coordinates":[[[17.6516,48.49226],[17.66018,48.47952],[17.67735,48.47474],[17.69691,48.47952],[17.7055,48.49226],[17.69794,48.50523],[17.67872,48.51069],[17.65915,48.50523],[17.6516,48.49226]]]}},{"type":"Feature","properties":{"name":"LZP23","category":"LZP - PROHIBITED","color":"#ef4444"},"geometry":{"type":"Polygon","coordinates":[[[17.91046,48.18257],[17.91904,48.16975],[17.93621,48.16494],[17.95578,48.16975],[17.96436,48.18257],[17.95681,48.19539],[17.93758,48.20088],[17.91836,48.19539],[17.91046,48.18257]]]}},{"type":"Feature","properties":{"name":"LZP1","category":"LZP - PROHIBITED","color":"#ef4444"},"geometry":{"type":"Polygon","coordinates":[[[18.43025,48.26103],[18.43712,48.24777],[18.456,48.2416],[18.47557,48.2464],[18.48415,48.2592],[18.4766,48.27223],[18.45703,48.27748],[18.43987,48.27337],[18.43025,48.26103]]]}},{"type":"Feature","properties":{"name":"LZR60A","category":"LZR - Restricted","color":"#ef4444"},"geometry":{"type":"Polygon","coordinates":[[[18.45875,48.1915],[18.66474,48.01427],[18.79555,48.08519],[18.8982,48.11362],[18.79108,48.31677],[18.50819,48.27451],[18.45875,48.1915]]]}},{"type":"Feature","properties":{"name":"LZR225","category":"LZR - Restricted","color":"#ef4444"},"geometry":{"type":"Polygon","coordinates":[[[18.95279,48.61884],[19.05853,48.53252],[19.05235,48.44082],[19.23019,48.43672],[19.235,48.52866],[19.34109,48.60408],[19.35207,48.80325],[19.13544,48.80822],[18.95794,48.72177],[18.95279,48.61884]]]}},{"type":"Feature","properties":{"name":"LZR241","category":"LZR - Restricted","color":"#ef4444"},"geometry":{"type":"Polygon","coordinates":[[[19.20719,48.41257],[19.22607,48.36172],[19.26796,48.40277],[19.33594,48.42943],[19.29028,48.44105],[19.25217,48.43945],[19.20719,48.41257]]]}},{"type":"Feature","properties":{"name":"LZR24","category":"LZR - Restricted","color":"#ef4444"},"geometry":{"type":"Polygon","coordinates":[[[19.22607,48.36172],[19.27586,48.29256],[19.39121,48.35397],[19.33594,48.42943],[19.26796,48.40277],[19.22607,48.36172]]]}},{"type":"Feature","properties":{"name":"LZR60B","category":"LZR - Restricted","color":"#ef4444"},"geometry":{"type":"Polygon","coordinates":[[[18.79108,48.31677],[18.8982,48.11362],[19.03278,48.12118],[19.21303,48.11225],[19.28856,48.12943],[19.42932,48.14204],[19.4585,48.22353],[19.6257,48.29781],[19.56631,48.41302],[19.39121,48.35397],[19.06677,48.30398],[18.79108,48.31677]]]}},{"type":"Feature","properties":{"name":"LZR60C","category":"LZR - Restricted","color":"#ef4444"},"geometry":{"type":"Polygon","coordinates":[[[19.76406,48.43558],[19.86603,48.23451],[19.95117,48.21232],[20.10155,48.2905],[20.30891,48.34667],[20.28831,48.49363],[19.76406,48.43558]]]}},{"type":"Feature","properties":{"name":"LZR90A","category":"LZR - Restricted","color":"#ef4444"},"geometry":{"type":"Polygon","coordinates":[[[21.20121,49.28863],[21.2558,49.13927],[21.45012,49.16397],[21.54316,49.28438],[21.37527,49.31058],[21.20121,49.28863]]]}},{"type":"Feature","properties":{"name":"LZR315","category":"LZR - Restricted","color":"#ef4444"},"geometry":{"type":"Polygon","coordinates":[[[21.1401,49.05047],[21.14731,49.01671],[21.19276460430009,48.94054],[21.19263,48.94054],[21.19949,48.92927],[21.2431,48.9225],[21.36086,48.90445],[21.36140048600311,48.90445],[21.41167,48.89678],[21.431628643635932,48.920145330647074],[21.446,48.93693],[21.56445,49.07477],[21.45012,49.16397],[21.2558,49.13927],[21.21254,49.12849],[21.17477,49.10782],[21.15074,49.08196],[21.1401,49.05047]]]}},{"type":"Feature","properties":{"name":"LZR90B","category":"LZR - Restricted","color":"#ef4444"},"geometry":{"type":"Polygon","coordinates":[[[21.45012,49.16397],[21.56445,49.07477],[21.83601,49.10826],[21.90262,49.17879],[21.67156,49.26422],[21.54316,49.28438],[21.45012,49.16397]]]}},{"type":"Feature","properties":{"name":"LZR90C","category":"LZR - Restricted","color":"#ef4444"},"geometry":{"type":"Polygon","coordinates":[[[21.446,48.93693],[21.53904,48.9225],[21.64616,48.9058],[21.66161,48.9225],[21.67877,48.94054],[21.678546778639106,48.94054],[21.83601,49.10826],[21.56445,49.07477],[21.449102180063843,48.94054],[21.44909,48.94054],[21.446,48.93693]]]}},{"type":"Feature","properties":{"name":"LZR28","category":"LZR - Restricted","color":"#ef4444"},"geometry":{"type":"Polygon","coordinates":[[[21.99944,48.9049],[22.11514,48.89136],[22.14088,48.9225],[22.16114,48.94663],[22.05986,48.95993],[22.01866,48.9225],[21.99944,48.9049]]]}},{"type":"Feature","properties":{"name":"LZR28A","category":"LZR - Restricted","color":"#ef4444"},"geometry":{"type":"Polygon","coordinates":[[[21.94176,48.83602],[22.13608,48.84438],[22.1553,48.9225],[22.15977,48.94054],[22.15966608371322,48.94054],[22.16114,48.94663],[22.137484148363033,48.94054],[22.13745,48.94054],[22.06741,48.9225],[21.99944,48.9049],[21.94176,48.83602]]]}},{"type":"Feature","properties":{"name":"LZR55","category":"LZR - Restricted","color":"#ef4444"},"geometry":{"type":"Polygon","coordinates":[[[21.994649961614005,48.37736468274365],[22.000256877709262,48.38055095077787],[22.003606737151785,48.381376076976174],[22.00479916080767,48.38129909207468],[22.0074096233587,48.38234364360439],[22.00812423243983,48.38389104947675],[22.009966247572763,48.38367513292127],[22.010650990032488,48.38445052009588],[22.015997876658385,48.385780150716236],[22.0179898492561,48.38657721942855],[22.01952834887413,48.3888344182339],[22.022984787162326,48.388954985241426],[22.02240443613687,48.39034986402191],[22.02107645735684,48.39067831889757],[22.02125239850694,48.39262037372803],[22.02146621303927,48.39260489146701],[22.02141,48.39274],[22.021749082594326,48.392584408947705],[22.02822042687157,48.392115820399724],[22.035521026009828,48.386265030707804],[22.035960657204143,48.38606330203966],[22.036807184925763,48.386324709503384],[22.042461451667183,48.384722828636505],[22.045049033233205,48.383931782524314],[22.048861510359625,48.381318870785776],[22.053891762262342,48.377835455634575],[22.05471,48.37746],[22.057772198081164,48.37980010770394],[22.057518526451986,48.38120025919783],[22.059671763232135,48.38141197159127],[22.061467509421348,48.38265540536001],[22.0615043222486,48.38265216765723],[22.06158,48.38271],[22.06920212515618,48.38224581055977],[22.071423971952168,48.38270668430023],[22.071622575534676,48.382098404490826],[22.072689666887666,48.38203341834488],[22.072076699139167,48.385191480140065],[22.076181472392786,48.38702735570324],[22.07634,48.38727],[22.076535142569902,48.38697179183978],[22.079714371273898,48.38370957905384],[22.084332076159964,48.38066723423032],[22.082518046200505,48.3785876672685],[22.084406196104357,48.37716428532915],[22.08536464327152,48.37347894319478],[22.08664,48.37153],[22.09316,48.3786],[22.1014,48.37632],[22.106056083999718,48.37874968208717],[22.110205844748787,48.38105412599433],[22.110425641198752,48.38102984603095],[22.11102,48.38134],[22.11280140432967,48.38076740575118],[22.1162001944004,48.38039195610915],[22.12099449959482,48.37819426300836],[22.12322584830462,48.379897201237846],[22.12605220243287,48.38072493586151],[22.134902287283502,48.38042703497115],[22.135843675434298,48.38060525894144],[22.135908737476377,48.38103169111294],[22.133393080641028,48.38663831092062],[22.130723492784206,48.3895807179373],[22.130771325134543,48.39081214782153],[22.131388184840443,48.39110660260093],[22.13127,48.39137],[22.133155463146114,48.3919502037288],[22.13449201572327,48.39258820016542],[22.135595215399796,48.39270097595038],[22.15496,48.39866],[22.1550744698341,48.40019524248088],[22.155159283773354,48.40324212179944],[22.151456534668537,48.40382422576147],[22.143877440210876,48.403720819032884],[22.14223033274062,48.405131344543555],[22.142247377487717,48.40534723170268],[22.141105692759865,48.41233270761022],[22.13819223831256,48.41446304994475],[22.1369636212565,48.418671465643385],[22.137794818516298,48.424916093509495],[22.138805036044523,48.42640943270298],[22.137873393994074,48.43210974815707],[22.137596979049768,48.43256204513039],[22.140522059571975,48.44773612776325],[22.148731411055856,48.48358689786733],[22.154472940485682,48.50967922529132],[22.153068413780293,48.51269687238697],[22.155494966694928,48.5148638991829],[22.157699215753738,48.524694256173476],[22.160889529880663,48.56711722947788],[22.16593527301416,48.57700603250214],[22.171296310420317,48.58741329818241],[22.172280313497062,48.58858767636606],[22.18861,48.60953],[22.188792156493406,48.60952582992419],[22.18894619522277,48.609738351420035],[22.196941423994172,48.609339270210334],[22.19822,48.60931],[22.20645632360874,48.61496865065752],[22.208403104973755,48.617295257077174],[22.214847917405248,48.620733977520565],[22.21573,48.62134],[22.230039698886262,48.62065527793124],[22.230868648504497,48.6221018694688],[22.239595324024116,48.627105833119394],[22.24045,48.62769],[22.250196395224535,48.647026064495705],[22.25021575154176,48.64727121707358],[22.250330550145723,48.64729221707302],[22.2504,48.64743],[22.26508956036701,48.65389837515691],[22.264939327168577,48.6548579311096],[22.267207861593903,48.65483114419074],[22.276425555966508,48.65889004750671],[22.28514567755873,48.663569098533],[22.28917940444186,48.66654760564907],[22.289023261203347,48.66786974151612],[22.290727669194386,48.66919417041498],[22.294764783604492,48.67067185403372],[22.30259,48.67645],[22.30816710269392,48.677575046606],[22.309674636424557,48.6787230526904],[22.313526683682447,48.679053337381],[22.316318623064884,48.67973802943452],[22.318413029662775,48.68144660994715],[22.3251553982481,48.6828517361736],[22.32846451281741,48.682344826516776],[22.337629318606325,48.68351834150958],[22.33959802126835,48.683915480018534],[22.345619174819706,48.698452854358116],[22.345494730027895,48.70575934128446],[22.353626741382147,48.71770701599764],[22.35061798124121,48.720189566536654],[22.350766898746276,48.72031580003941],[22.35065,48.72041],[22.36164,48.73015],[22.36166084663788,48.73044426993179],[22.360382909859467,48.73841564376724],[22.36215339568186,48.73986861790533],[22.361772795461015,48.74019949480525],[22.358414352880516,48.74206491487934],[22.353835468509686,48.743096267250216],[22.352316998011094,48.745451641881424],[22.345493259534692,48.74924183284915],[22.345105703686436,48.74925704756858],[22.342594446056935,48.75054726159143],[22.342810168714315,48.751009869421786],[22.34567534923685,48.7652801374612],[22.345684164524734,48.765851909997124],[22.345825279344087,48.766026876733164],[22.34585,48.76615],[22.345992999432983,48.766234831054746],[22.35021453936127,48.7714690726866],[22.356893804359732,48.77270147753168],[22.358516482254434,48.773664093078104],[22.362214480980487,48.778108282624906],[22.364278807718506,48.779374609694976],[22.372847278513976,48.782165501347144],[22.37331,48.78244],[22.37657439330178,48.789265041475126],[22.37610694972859,48.79007578716043],[22.37762907114921,48.79147011279655],[22.378698399026405,48.79370581371788],[22.378986521766258,48.79449398482937],[22.380769504275257,48.796353636476475],[22.383660609289436,48.797504616368485],[22.387554385024192,48.79996885905377],[22.38533270214344,48.80543493236349],[22.385633177086888,48.810710522010496],[22.38363103037671,48.824370586610485],[22.381659131863735,48.82556246344649],[22.37905081206667,48.829130582934916],[22.375846519027593,48.83389350173425],[22.375799650540763,48.83558186231244],[22.376479991790827,48.83610871586907],[22.38121,48.85997],[22.382793599619205,48.86200065014651],[22.38347161269524,48.864907254420885],[22.386667544068153,48.86952946919268],[22.38940642733311,48.87048028060564],[22.3946,48.87714],[22.42104,48.88459],[22.42069403641578,48.903331341590736],[22.42067807964924,48.90334841817765],[22.420693603896602,48.903354771772634],[22.42069,48.90355],[22.421114116094987,48.90445],[22.4231,48.90445],[22.42342019113137,48.90533641869958],[22.423571621000367,48.90800185326671],[22.424884990326532,48.90939157598066],[22.425020200254863,48.909765891809855],[22.424769159969937,48.91220622412434],[22.424745401273185,48.912437179548306],[22.424994159819953,48.912683687411885],[22.426676278443395,48.91435058679498],[22.42962,48.9225],[22.42960356743172,48.92252312858363],[22.42623432420816,48.924236425642235],[22.42522607877725,48.926033684091905],[22.42486120479216,48.92919431675538],[22.424862907696895,48.92919553324158],[22.42481,48.92927],[22.436230110410314,48.940289233246936],[22.436460992468653,48.94054],[22.435513150434385,48.94054],[22.46635,48.97301],[22.46940551615765,48.97412409326999],[22.46948700326452,48.97415724040782],[22.469506313444114,48.974160845678654],[22.47253,48.97526333333333],[22.47253,48.97481],[22.472678374036672,48.975317433036025],[22.475608163086626,48.976385684059636],[22.475631022139392,48.976485290239985],[22.4772608612518,48.990575817915264],[22.47725513336052,48.99096975962173],[22.477254003328156,48.99104747877786],[22.477283936105376,48.99106826381153],[22.477320781441783,48.991093848860054],[22.47734,48.99126],[22.477794115983144,48.991422527829805],[22.479637099240563,48.992702277743184],[22.48223577619454,48.99301219527528],[22.493709214796027,48.99711853186213],[22.49494351437278,48.998251813387185],[22.499469256171736,48.99918004711177],[22.5,48.99937],[22.500242428752202,48.999338625505324],[22.50044645138605,48.99938047073153],[22.50540563852792,48.99978073262476],[22.509651478310236,48.998120930935016],[22.520854817832443,48.99667102405321],[22.526866904942445,49.00085517995917],[22.527290759826375,49.001046206250685],[22.531064883829888,49.00274715848559],[22.54288721815636,49.00566262103987],[22.545413801324287,49.00669901073739],[22.544934423932624,49.007975312537475],[22.537936929146678,49.02118501083348],[22.538173082578638,49.021253553565785],[22.551026863475485,49.030128079686904],[22.551354328534824,49.063106904746014],[22.55318637632435,49.079345649964374],[22.553213783545388,49.07934131809771],[22.55322,49.07949],[22.56248,49.08106],[22.565489985606693,49.08784951445911],[22.555909727613628,49.08745215369064],[22.547722933547337,49.09014908994128],[22.54703816674156,49.0914155455132],[22.53937226632576,49.09455516502109],[22.53333665378188,49.09303617051899],[22.517272047297453,49.092410120310085],[22.51149476126298,49.09179360815251],[22.507679287095556,49.091256836829515],[22.507671206953983,49.09125360981665],[22.50717303681744,49.09091308845749],[22.506714713116082,49.09087160934115],[22.50421541865147,49.08987345165727],[22.5,49.08601],[22.49996890731898,49.086021454602545],[22.499965528794753,49.086017148857906],[22.499737500898018,49.08572653975525],[22.49697042619974,49.08575294197827],[22.490994243371333,49.08772573099044],[22.48702356461382,49.08830676376312],[22.48646081163416,49.08881784304178],[22.48330946092548,49.0916798270831],[22.477616905718985,49.09305513957584],[22.476948271960694,49.09321668045291],[22.476232039258125,49.09374316830966],[22.47344213917106,49.09579396620273],[22.47253,49.09613],[22.47253,49.0955824137931],[22.458157638005744,49.1027228842315],[22.45601686393554,49.10362896825967],[22.452487952726592,49.102899805653266],[22.451598417344748,49.10289459772985],[22.42859,49.09837],[22.4284664309207,49.09840599099397],[22.428380604233986,49.09833708123319],[22.422605285745828,49.09935643028056],[22.419099365152988,49.10084388475142],[22.26268079847441,48.94054],[22.26242,48.94054],[22.2607,48.93851],[22.25521,48.9225],[22.24903,48.90445],[22.24919649888928,48.90445],[22.19822,48.75144],[22.03239,48.632],[21.994649961614005,48.37736468274365]]]}}]}